QIANFAN-57              
1 62787U 25016C   25227.95120689  .00000092  00000+0  12332-3 0  9996
2 62787  88.9835 115.4544 0002547  87.6940 272.4502 13.50959495 31162
QIANFAN-58              
1 62788U 25016D   25227.84836608  .00000091  00000+0  12237-3 0  9993
2 62788  88.9804 115.3335 0013512 335.5408  24.5100 13.50958620 31196
QIANFAN-59              
1 62789U 25016E   25227.93478339  .00000096  00000+0  12989-3 0  9996
2 62789  88.9828 115.3671 0014522 338.0181  22.0345 13.50962910 31207
QIANFAN-60              
1 62790U 25016F   25227.92637748  .00000091  00000+0  12229-3 0  9990
2 62790  88.9809 115.3700 0014904 335.5432  24.5011 13.50960091 31188
QIANFAN-61              
1 62791U 25016G   25227.93890578  .00000092  00000+0  12338-3 0  9996
2 62791  88.9877 115.4457 0014294 334.4371  25.6072 13.50965831 31205
QIANFAN-62              
1 62792U 25016H   25227.94287737  .00000091  00000+0  12294-3 0  9995
2 62792  88.9823 115.3780 0015700 334.0717  25.9646 13.50959758 31197
QIANFAN-63              
1 62793U 25016J   25227.95526333  .00000083  00000+0  11015-3 0  9996
2 62793  88.9829 115.3174 0015664 338.7765  21.2735 13.50956845 31231
QIANFAN-64              
1 62794U 25016K   25227.94697461  .00000087  00000+0  11576-3 0  9993
2 62794  88.9816 115.3143 0013302 333.5046  26.5424 13.50959326 31225
